{"type": "FeatureCollection", "features": [ {"type": "Feature", "properties": {"norad_id": 30846, "name": "FENGYUN 1C DEB", "group": "fengyun-1c-debris", "lat": -66.72294290767215, "lon": -162.16866594173862, "alt_km": 721.9987815471632, "timestamp": "2025-12-26T21:25:53.289369+00:00", "meta": {"OBJECT_NAME": "FENGYUN 1C DEB", "OBJECT_ID": "1999-025AWG", "EPOCH": "2025-12-25T23:08:12.928128", "MEAN_MOTION": 14.41606109, "ECCENTRICITY": 0.0053902, "INCLINATION": 99.3213, "RA_OF_ASC_NODE": 174.3737, "ARG_OF_PERICENTER": 297.5542, "MEAN_ANOMALY": 215.6715, "EPHEMERIS_TYPE": 0, "CLASSIFICATION_TYPE": "U", "NORAD_CAT_ID": 30846, "ELEMENT_SET_NO": 999, "REV_AT_EPOCH": 98120, "BSTAR": 0.00078221, "MEAN_MOTION_DOT": 2.538e-05, "MEAN_MOTION_DDOT": 0}, "tle": {"line1": "1 30846U 99025AWG 25359.96403852  .00002538  00000+0  78221-3 0  9997", "line2": "2 30846  99.3213 174.3737 0053902 297.5542 215.6715 14.41606109981204"}}, "geometry": {"type": "Point", "coordinates": [-162.16866594173862, -66.72294290767215]}}, {"type": "Feature", "properties": {"norad_id": 30847, "name": "FENGYUN 1C DEB", "group": "fengyun-1c-debris", "lat": -14.93767961584098, "lon": -21.555126377670778, "alt_km": 841.4330717671019, "timestamp": "2025-12-26T21:25:53.289380+00:00", "meta": {"OBJECT_NAME": "FENGYUN 1C DEB", "OBJECT_ID": "1999-025AWH", "EPOCH": "2025-12-24T09:20:18.218400", "MEAN_MOTION": 14.17103703, "ECCENTRICITY": 0.00657959, "INCLINATION": 98.7321, "RA_OF_ASC_NODE": 158.3361, "ARG_OF_PERICENTER": 294.6027, "MEAN_ANOMALY": 94.5153, "EPHEMERIS_TYPE": 0, "CLASSIFICATION_TYPE": "U", "NORAD_CAT_ID": 30847, "ELEMENT_SET_NO": 999, "REV_AT_EPOCH": 96220, "BSTAR": 0.0019856738, "MEAN_MOTION_DOT": 4.041e-05, "MEAN_MOTION_DDOT": 0}, "tle": {"line1": "1 30847U 99025AWH 25358.38909975  .00004041  00000+0  19857-2 0  9990", "line2": "2 30847  98.7321 158.3361 0065795 294.6027  94.5153 14.17103703962206"}}, "geometry": {"type": "Point", "coordinates": [-21.555126377670778, -14.93767961584098]}}, {"type": "Feature", "properties": {"norad_id": 30848, "name": "FENGYUN 1C DEB", "group": "fengyun-1c-debris", "lat": 72.51375101137077, "lon": 46.84018881055486, "alt_km": 800.2190780080755, "timestamp": "2025-12-26T21:25:53.289390+00:00", "meta": {"OBJECT_NAME": "FENGYUN 1C DEB", "OBJECT_ID": "1999-025AWJ", "EPOCH": "2025-12-24T12:01:43.212576", "MEAN_MOTION": 14.34555484, "ECCENTRICITY": 0.00435565, "INCLINATION": 99.0594, "RA_OF_ASC_NODE": 193.906, "ARG_OF_PERICENTER": 301.431, "MEAN_ANOMALY": 58.2618, "EPHEMERIS_TYPE": 0, "CLASSIFICATION_TYPE": "U", "NORAD_CAT_ID": 30848, "ELEMENT_SET_NO": 999, "REV_AT_EPOCH": 97475, "BSTAR": 0.0011922202, "MEAN_MOTION_DOT": 3.354e-05, "MEAN_MOTION_DDOT": 0}, "tle": {"line1": "1 30848U 99025AWJ 25358.50119459  .00003354  00000+0  11922-2 0  9996", "line2": "2 30848  99.0594 193.9060 0043556 301.4310  58.2618 14.34555484974759"}}, "geometry": {"type": "Point", "coordinates": [46.84018881055486, 72.51375101137077]}}, {"type": "Feature", "properties": {"norad_id": 30849, "name": "FENGYUN 1C DEB", "group": "fengyun-1c-debris", "lat": 77.98406987283347, "lon": 12.716361197579053, "alt_km": 837.436635449325, "timestamp": "2025-12-26T21:25:53.289400+00:00", "meta": {"OBJECT_NAME": "FENGYUN 1C DEB", "OBJECT_ID": "1999-025AWK", "EPOCH": "2025-12-26T02:34:13.871136", "MEAN_MOTION": 14.18927761, "ECCENTRICITY": 0.00480688, "INCLINATION": 99.0468, "RA_OF_ASC_NODE": 60.3782, "ARG_OF_PERICENTER": 326.9339, "MEAN_ANOMALY": 62.538, "EPHEMERIS_TYPE": 0, "CLASSIFICATION_TYPE": "U", "NORAD_CAT_ID": 30849, "ELEMENT_SET_NO": 999, "REV_AT_EPOCH": 96562, "BSTAR": 0.0013328861, "MEAN_MOTION_DOT": 2.764e-05, "MEAN_MOTION_DDOT": 0}, "tle": {"line1": "1 30849U 99025AWK 25360.10710499  .00002764  00000+0  13329-2 0  9994", "line2": "2 30849  99.0468  60.3782 0048068 326.9339  62.5380 14.18927761965627"}}, "geometry": {"type": "Point", "coordinates": [12.716361197579053, 77.98406987283347]}}, {"type": "Feature", "properties": {"norad_id": 30850, "name": "FENGYUN 1C DEB", "group": "fengyun-1c-debris", "lat": -61.4148766915437, "lon": 29.87312773120447, "alt_km": 838.5541946969342, "timestamp": "2025-12-26T21:25:53.289410+00:00", "meta": {"OBJECT_NAME": "FENGYUN 1C DEB", "OBJECT_ID": "1999-025AWL", "EPOCH": "2025-12-26T02:22:08.914656", "MEAN_MOTION": 14.16382611, "ECCENTRICITY": 0.01092213, "INCLINATION": 98.3938, "RA_OF_ASC_NODE": 224.8464, "ARG_OF_PERICENTER": 158.6843, "MEAN_ANOMALY": 354.9398, "EPHEMERIS_TYPE": 0, "CLASSIFICATION_TYPE": "U", "NORAD_CAT_ID": 30850, "ELEMENT_SET_NO": 999, "REV_AT_EPOCH": 95987, "BSTAR": 0.0018457847, "MEAN_MOTION_DOT": 3.847e-05, "MEAN_MOTION_DDOT": 0}, "tle": {"line1": "1 30850U 99025AWL 25360.09871429  .00003847  00000+0  18458-2 0  9996", "line2": "2 30850  98.3938 224.8464 0109221 158.6843 354.9398 14.16382611959870"}}, "geometry": {"type": "Point", "coordinates": [29.87312773120447, -61.4148766915437]}}, {"type": "Feature", "properties": {"norad_id": 30852, "name": "FENGYUN 1C DEB", "group": "fengyun-1c-debris", "lat": -77.01510487551839, "lon": 60.040045103968446, "alt_km": 862.2105431840855, "timestamp": "2025-12-26T21:25:53.289421+00:00", "meta": {"OBJECT_NAME": "FENGYUN 1C DEB", "OBJECT_ID": "1999-025AWN", "EPOCH": "2025-12-26T11:35:52.771488", "MEAN_MOTION": 14.10307012, "ECCENTRICITY": 0.00563753, "INCLINATION": 98.733, "RA_OF_ASC_NODE": 17.8382, "ARG_OF_PERICENTER": 195.3058, "MEAN_ANOMALY": 164.641, "EPHEMERIS_TYPE": 0, "CLASSIFICATION_TYPE": "U", "NORAD_CAT_ID": 30852, "ELEMENT_SET_NO": 999, "REV_AT_EPOCH": 96576, "BSTAR": 0.00048901533, "MEAN_MOTION_DOT": 8.38e-06, "MEAN_MOTION_DDOT": 0}, "tle": {"line1": "1 30852U 99025AWN 25360.48324967  .00000838  00000+0  48902-3 0  9996", "line2": "2 30852  98.7330  17.8382 0056375 195.3058 164.6410 14.10307012965760"}}, "geometry": {"type": "Point", "coordinates": [60.040045103968446, -77.01510487551839]}}, {"type": "Feature", "properties": {"norad_id": 30856, "name": "FENGYUN 1C DEB", "group": "fengyun-1c-debris", "lat": 71.19494404222296, "lon": 30.294694613231048, "alt_km": 727.6626732312006, "timestamp": "2025-12-26T21:25:53.289430+00:00", "meta": {"OBJECT_NAME": "FENGYUN 1C DEB", "OBJECT_ID": "1999-025AWS", "EPOCH": "2025-12-24T11:07:04.348128", "MEAN_MOTION": 14.46570184, "ECCENTRICITY": 0.00873355, "INCLINATION": 98.2024, "RA_OF_ASC_NODE": 182.8814, "ARG_OF_PERICENTER": 203.0018, "MEAN_ANOMALY": 218.7229, "EPHEMERIS_TYPE": 0, "CLASSIFICATION_TYPE": "U", "NORAD_CAT_ID": 30856, "ELEMENT_SET_NO": 999, "REV_AT_EPOCH": 96695, "BSTAR": 0.00535508, "MEAN_MOTION_DOT": 0.00020251, "MEAN_MOTION_DDOT": 0}, "tle": {"line1": "1 30856U 99025AWS 25358.46324477  .00020251  00000+0  53551-2 0  9997", "line2": "2 30856  98.2024 182.8814 0087335 203.0018 218.7229 14.46570184966957"}}, "geometry": {"type": "Point", "coordinates": [30.294694613231048, 71.19494404222296]}}, {"type": "Feature", "properties": {"norad_id": 30857, "name": "FENGYUN 1C DEB", "group": "fengyun-1c-debris", "lat": -31.470098558338343, "lon": 166.05701615078357, "alt_km": 703.2845911011491, "timestamp": "2025-12-26T21:25:53.289441+00:00", "meta": {"OBJECT_NAME": "FENGYUN 1C DEB", "OBJECT_ID": "1999-025AWT", "EPOCH": "2025-12-23T04:47:46.082688", "MEAN_MOTION": 14.51842039, "ECCENTRICITY": 0.00407608, "INCLINATION": 98.9722, "RA_OF_ASC_NODE": 347.6644, "ARG_OF_PERICENTER": 263.7101, "MEAN_ANOMALY": 95.9448, "EPHEMERIS_TYPE": 0, "CLASSIFICATION_TYPE": "U", "NORAD_CAT_ID": 30857, "ELEMENT_SET_NO": 999, "REV_AT_EPOCH": 96875, "BSTAR": 0.0044417338, "MEAN_MOTION_DOT": 0.00018071, "MEAN_MOTION_DDOT": 0}, "tle": {"line1": "1 30857U 99025AWT 25357.19983892  .00018071  00000+0  44417-2 0  9997", "line2": "2 30857  98.9722 347.6644 0040760 263.7101  95.9448 14.51842039968754"}}, "geometry": {"type": "Point", "coordinates": [166.05701615078357, -31.470098558338343]}}, {"type": "Feature", "properties": {"norad_id": 30858, "name": "FENGYUN 1C DEB", "group": "fengyun-1c-debris", "lat": -72.74153571390278, "lon": 88.28957267933713, "alt_km": 858.1604894864804, "timestamp": "2025-12-26T21:25:53.289451+00:00", "meta": {"OBJECT_NAME": "FENGYUN 1C DEB", "OBJECT_ID": "1999-025AWU", "EPOCH": "2025-12-26T10:31:25.662144", "MEAN_MOTION": 14.17801707, "ECCENTRICITY": 0.00304739, "INCLINATION": 98.7974, "RA_OF_ASC_NODE": 57.9406, "ARG_OF_PERICENTER": 71.7326, "MEAN_ANOMALY": 54.9651, "EPHEMERIS_TYPE": 0, "CLASSIFICATION_TYPE": "U", "NORAD_CAT_ID": 30858, "ELEMENT_SET_NO": 999, "REV_AT_EPOCH": 97174, "BSTAR": 0.00037482293, "MEAN_MOTION_DOT": 7.24e-06, "MEAN_MOTION_DDOT": 0}, "tle": {"line1": "1 30858U 99025AWU 25360.43849146  .00000724  00000+0  37482-3 0  9993", "line2": "2 30858  98.7974  57.9406 0030473  71.7326  54.9651 14.17801707971748"}}, "geometry": {"type": "Point", "coordinates": [88.28957267933713, -72.74153571390278]}}, {"type": "Feature", "properties": {"norad_id": 30859, "name": "FENGYUN 1C DEB", "group": "fengyun-1c-debris", "lat": 18.120094005074783, "lon": -125.23347522243856, "alt_km": 749.8583113729028, "timestamp": "2025-12-26T21:25:53.289461+00:00", "meta": {"OBJECT_NAME": "FENGYUN 1C DEB", "OBJECT_ID": "1999-025AWV", "EPOCH": "2025-12-26T02:27:45.060768", "MEAN_MOTION": 14.49320521, "ECCENTRICITY": 0.00306624, "INCLINATION": 98.9208, "RA_OF_ASC_NODE": 50.9849, "ARG_OF_PERICENTER": 348.6315, "MEAN_ANOMALY": 11.4181, "EPHEMERIS_TYPE": 0, "CLASSIFICATION_TYPE": "U", "NORAD_CAT_ID": 30859, "ELEMENT_SET_NO": 999, "REV_AT_EPOCH": 97228, "BSTAR": 0.0024493798, "MEAN_MOTION_DOT": 9.368e-05, "MEAN_MOTION_DDOT": 0}, "tle": {"line1": "1 30859U 99025AWV 25360.10260487  .00009368  00000+0  24494-2 0  9994", "line2": "2 30859  98.9208  50.9849 0030662 348.6315  11.4181 14.49320521972280"}}, "geometry": {"type": "Point", "coordinates": [-125.23347522243856, 18.120094005074783]}}]}